{
  "links" : {
    "next" : "https://api.nasa.gov/neo/rest/v1/feed?start_date=2003-04-16&end_date=2003-04-16&detailed=true&api_key=t0TVs3DtDT2H8Oy2Zy8m2eVrNsAVKAexjcZXUckd",
    "prev" : "https://api.nasa.gov/neo/rest/v1/feed?start_date=2003-04-14&end_date=2003-04-14&detailed=true&api_key=t0TVs3DtDT2H8Oy2Zy8m2eVrNsAVKAexjcZXUckd",
    "self" : "https://api.nasa.gov/neo/rest/v1/feed?start_date=2003-04-15&end_date=2003-04-15&detailed=true&api_key=t0TVs3DtDT2H8Oy2Zy8m2eVrNsAVKAexjcZXUckd"
  },
  "element_count" : 9,
  "near_earth_objects" : {
    "2003-04-15" : [ {
      "links" : {
        "self" : "https://api.nasa.gov/neo/rest/v1/neo/2264993?api_key=t0TVs3DtDT2H8Oy2Zy8m2eVrNsAVKAexjcZXUckd"
      },
      "neo_reference_id" : "2264993",
      "name" : "264993 (2003 DX10)",
      "nasa_jpl_url" : "http://ssd.jpl.nasa.gov/sbdb.cgi?sstr=2264993",
      "absolute_magnitude_h" : 20.4,
      "estimated_diameter" : {
        "kilometers" : {
          "estimated_diameter_min" : 0.2210828104,
          "estimated_diameter_max" : 0.4943561926
        },
        "meters" : {
          "estimated_diameter_min" : 221.0828103591,
          "estimated_diameter_max" : 494.3561926196
        },
        "miles" : {
          "estimated_diameter_min" : 0.137374447,
          "estimated_diameter_max" : 0.3071786018
        },
        "feet" : {
          "estimated_diameter_min" : 725.3373275385,
          "estimated_diameter_max" : 1621.9035709942
        }
      },
      "is_potentially_hazardous_asteroid" : true,
      "close_approach_data" : [ {
        "close_approach_date" : "2003-04-15",
        "epoch_date_close_approach" : 1050390000000,
        "relative_velocity" : {
          "kilometers_per_second" : "8.6772297171",
          "kilometers_per_hour" : "31238.0269815701",
          "miles_per_hour" : "19410.0951541873"
        },
        "miss_distance" : {
          "astronomical" : "0.1221935696",
          "lunar" : "47.5332984924",
          "kilometers" : "18279898",
          "miles" : "11358602"
        },
        "orbiting_body" : "Earth"
      } ],
      "orbital_data" : {
        "orbit_id" : "42",
        "orbit_determination_date" : "2017-04-06 09:24:40",
        "orbit_uncertainty" : "0",
        "minimum_orbit_intersection" : ".0446249",
        "jupiter_tisserand_invariant" : "4.719",
        "epoch_osculation" : "2458000.5",
        "eccentricity" : ".4108140522056679",
        "semi_major_axis" : "1.375507512807988",
        "inclination" : "3.146043275355666",
        "ascending_node_longitude" : "61.92404329612055",
        "orbital_period" : "589.2408903167286",
        "perihelion_distance" : ".8104296976319986",
        "perihelion_argument" : "193.833608613648",
        "aphelion_distance" : "1.940585327983977",
        "perihelion_time" : "2458086.993416073555",
        "mean_anomaly" : "307.1563662702654",
        "mean_motion" : ".6109555631933365",
        "equinox" : "J2000"
      }
    }, {
      "links" : {
        "self" : "https://api.nasa.gov/neo/rest/v1/neo/2293054?api_key=t0TVs3DtDT2H8Oy2Zy8m2eVrNsAVKAexjcZXUckd"
      },
      "neo_reference_id" : "2293054",
      "name" : "293054 (2006 WP127)",
      "nasa_jpl_url" : "http://ssd.jpl.nasa.gov/sbdb.cgi?sstr=2293054",
      "absolute_magnitude_h" : 18.4,
      "estimated_diameter" : {
        "kilometers" : {
          "estimated_diameter_min" : 0.5553349116,
          "estimated_diameter_max" : 1.2417666126
        },
        "meters" : {
          "estimated_diameter_min" : 555.334911581,
          "estimated_diameter_max" : 1241.766612574
        },
        "miles" : {
          "estimated_diameter_min" : 0.3450690093,
          "estimated_diameter_max" : 0.7715977618
        },
        "feet" : {
          "estimated_diameter_min" : 1821.9649913114,
          "estimated_diameter_max" : 4074.0375731972
        }
      },
      "is_potentially_hazardous_asteroid" : false,
      "close_approach_data" : [ {
        "close_approach_date" : "2003-04-15",
        "epoch_date_close_approach" : 1050390000000,
        "relative_velocity" : {
          "kilometers_per_second" : "22.188004793",
          "kilometers_per_hour" : "79876.8172548842",
          "miles_per_hour" : "49632.347921514"
        },
        "miss_distance" : {
          "astronomical" : "0.4149720437",
          "lunar" : "161.424118042",
          "kilometers" : "62078932",
          "miles" : "38574060"
        },
        "orbiting_body" : "Earth"
      } ],
      "orbital_data" : {
        "orbit_id" : "67",
        "orbit_determination_date" : "2017-04-06 09:24:12",
        "orbit_uncertainty" : "0",
        "minimum_orbit_intersection" : ".0918099",
        "jupiter_tisserand_invariant" : "2.945",
        "epoch_osculation" : "2458000.5",
        "eccentricity" : ".7672688654547117",
        "semi_major_axis" : "2.532384959257233",
        "inclination" : "6.079951142248365",
        "ascending_node_longitude" : "178.3081815009171",
        "orbital_period" : "1471.949854630369",
        "perihelion_distance" : ".5893648246733595",
        "perihelion_argument" : "22.94072811459408",
        "aphelion_distance" : "4.475405093841107",
        "perihelion_time" : "2458631.005460785300",
        "mean_anomaly" : "205.7950417477321",
        "mean_motion" : ".2445735490699865",
        "equinox" : "J2000"
      }
    }, {
      "links" : {
        "self" : "https://api.nasa.gov/neo/rest/v1/neo/2350462?api_key=t0TVs3DtDT2H8Oy2Zy8m2eVrNsAVKAexjcZXUckd"
      },
      "neo_reference_id" : "2350462",
      "name" : "350462 (1998 KG3)",
      "nasa_jpl_url" : "http://ssd.jpl.nasa.gov/sbdb.cgi?sstr=2350462",
      "absolute_magnitude_h" : 22.1,
      "estimated_diameter" : {
        "kilometers" : {
          "estimated_diameter_min" : 0.1010543415,
          "estimated_diameter_max" : 0.2259643771
        },
        "meters" : {
          "estimated_diameter_min" : 101.054341542,
          "estimated_diameter_max" : 225.9643771094
        },
        "miles" : {
          "estimated_diameter_min" : 0.0627922373,
          "estimated_diameter_max" : 0.140407711
        },
        "feet" : {
          "estimated_diameter_min" : 331.5431259047,
          "estimated_diameter_max" : 741.3529669956
        }
      },
      "is_potentially_hazardous_asteroid" : false,
      "close_approach_data" : [ {
        "close_approach_date" : "2003-04-15",
        "epoch_date_close_approach" : 1050390000000,
        "relative_velocity" : {
          "kilometers_per_second" : "3.4578231653",
          "kilometers_per_hour" : "12448.1633951357",
          "miles_per_hour" : "7734.8046384942"
        },
        "miss_distance" : {
          "astronomical" : "0.1646198824",
          "lunar" : "64.0371322632",
          "kilometers" : "24626784",
          "miles" : "15302374"
        },
        "orbiting_body" : "Earth"
      } ],
      "orbital_data" : {
        "orbit_id" : "45",
        "orbit_determination_date" : "2017-04-06 09:23:07",
        "orbit_uncertainty" : "0",
        "minimum_orbit_intersection" : ".0963089",
        "jupiter_tisserand_invariant" : "5.416",
        "epoch_osculation" : "2455541.5",
        "eccentricity" : ".1187031890689787",
        "semi_major_axis" : "1.160972667211777",
        "inclination" : "5.50298357476303",
        "ascending_node_longitude" : "208.0434025619415",
        "orbital_period" : "456.9107959661066",
        "perihelion_distance" : "1.023161509191821",
        "perihelion_argument" : "267.617562774524",
        "aphelion_distance" : "1.298783825231733",
        "perihelion_time" : "2455387.038893174426",
        "mean_anomaly" : "121.6999006110844",
        "mean_motion" : ".7878999646721078",
        "equinox" : "J2000"
      }
    } ]
  }
}